<?xml version="1.0" encoding="UTF-8"?>
<kml xmlns="http://www.opengis.net/kml/2.2"><Document>
<name>M3C/D band130 仲裁点</name>
<Placemark><name>M3C-000</name><description>臂=C_band130 教师类=草本旱地</description><Style><IconStyle><color>ff0000ff</color></IconStyle></Style><Point><coordinates>131.285545,46.893136,0</coordinates></Point></Placemark>
<Placemark><name>M3C-001</name><description>臂=C_band130 教师类=草本旱地</description><Style><IconStyle><color>ff0000ff</color></IconStyle></Style><Point><coordinates>131.000060,45.668912,0</coordinates></Point></Placemark>
<Placemark><name>M3C-002</name><description>臂=C_band130 教师类=草本旱地</description><Style><IconStyle><color>ff0000ff</color></IconStyle></Style><Point><coordinates>132.762196,46.840135,0</coordinates></Point></Placemark>
<Placemark><name>M3C-003</name><description>臂=C_band130 教师类=草本旱地</description><Style><IconStyle><color>ff0000ff</color></IconStyle></Style><Point><coordinates>130.409867,45.343183,0</coordinates></Point></Placemark>
<Placemark><name>M3C-004</name><description>臂=C_band130 教师类=草本旱地</description><Style><IconStyle><color>ff0000ff</color></IconStyle></Style><Point><coordinates>130.109650,45.999941,0</coordinates></Point></Placemark>
<Placemark><name>M3C-005</name><description>臂=C_band130 教师类=草本旱地</description><Style><IconStyle><color>ff0000ff</color></IconStyle></Style><Point><coordinates>130.011195,44.628483,0</coordinates></Point></Placemark>
<Placemark><name>M3C-006</name><description>臂=C_band130 教师类=草本旱地</description><Style><IconStyle><color>ff0000ff</color></IconStyle></Style><Point><coordinates>130.422623,43.110150,0</coordinates></Point></Placemark>
<Placemark><name>M3C-007</name><description>臂=C_band130 教师类=草本旱地</description><Style><IconStyle><color>ff0000ff</color></IconStyle></Style><Point><coordinates>131.140826,45.427984,0</coordinates></Point></Placemark>
<Placemark><name>M3C-008</name><description>臂=C_band130 教师类=草本旱地</description><Style><IconStyle><color>ff0000ff</color></IconStyle></Style><Point><coordinates>130.640015,46.595793,0</coordinates></Point></Placemark>
<Placemark><name>M3C-009</name><description>臂=C_band130 教师类=草本旱地</description><Style><IconStyle><color>ff0000ff</color></IconStyle></Style><Point><coordinates>130.657533,44.837521,0</coordinates></Point></Placemark>
<Placemark><name>M3C-010</name><description>臂=C_band130 教师类=草本旱地</description><Style><IconStyle><color>ff0000ff</color></IconStyle></Style><Point><coordinates>130.153847,42.994447,0</coordinates></Point></Placemark>
<Placemark><name>M3C-011</name><description>臂=C_band130 教师类=草本旱地</description><Style><IconStyle><color>ff0000ff</color></IconStyle></Style><Point><coordinates>131.103816,46.313363,0</coordinates></Point></Placemark>
<Placemark><name>M3C-012</name><description>臂=C_band130 教师类=草本旱地</description><Style><IconStyle><color>ff0000ff</color></IconStyle></Style><Point><coordinates>130.750149,47.713747,0</coordinates></Point></Placemark>
<Placemark><name>M3C-013</name><description>臂=C_band130 教师类=草本旱地</description><Style><IconStyle><color>ff0000ff</color></IconStyle></Style><Point><coordinates>133.441142,47.936978,0</coordinates></Point></Placemark>
<Placemark><name>M3C-014</name><description>臂=C_band130 教师类=草本旱地</description><Style><IconStyle><color>ff0000ff</color></IconStyle></Style><Point><coordinates>131.003204,45.286229,0</coordinates></Point></Placemark>
<Placemark><name>M3C-015</name><description>臂=C_band130 教师类=草本旱地</description><Style><IconStyle><color>ff0000ff</color></IconStyle></Style><Point><coordinates>131.502847,46.385049,0</coordinates></Point></Placemark>
<Placemark><name>M3C-016</name><description>臂=C_band130 教师类=草本旱地</description><Style><IconStyle><color>ff0000ff</color></IconStyle></Style><Point><coordinates>130.090067,47.278962,0</coordinates></Point></Placemark>
<Placemark><name>M3C-017</name><description>臂=C_band130 教师类=草本旱地</description><Style><IconStyle><color>ff0000ff</color></IconStyle></Style><Point><coordinates>130.885615,43.691271,0</coordinates></Point></Placemark>
<Placemark><name>M3C-018</name><description>臂=C_band130 教师类=草本旱地</description><Style><IconStyle><color>ff0000ff</color></IconStyle></Style><Point><coordinates>130.456310,47.320464,0</coordinates></Point></Placemark>
<Placemark><name>M3C-019</name><description>臂=C_band130 教师类=草本旱地</description><Style><IconStyle><color>ff0000ff</color></IconStyle></Style><Point><coordinates>133.731029,46.784170,0</coordinates></Point></Placemark>
<Placemark><name>M3C-020</name><description>臂=C_band130 教师类=灌溉耕地</description><Style><IconStyle><color>ff0000ff</color></IconStyle></Style><Point><coordinates>130.455142,48.766303,0</coordinates></Point></Placemark>
<Placemark><name>M3C-021</name><description>臂=C_band130 教师类=灌溉耕地</description><Style><IconStyle><color>ff0000ff</color></IconStyle></Style><Point><coordinates>130.635075,46.628133,0</coordinates></Point></Placemark>
<Placemark><name>M3C-022</name><description>臂=C_band130 教师类=灌溉耕地</description><Style><IconStyle><color>ff0000ff</color></IconStyle></Style><Point><coordinates>130.150883,42.908658,0</coordinates></Point></Placemark>
<Placemark><name>M3C-023</name><description>臂=C_band130 教师类=灌溉耕地</description><Style><IconStyle><color>ff0000ff</color></IconStyle></Style><Point><coordinates>132.201377,47.442366,0</coordinates></Point></Placemark>
<Placemark><name>M3C-024</name><description>臂=C_band130 教师类=灌溉耕地</description><Style><IconStyle><color>ff0000ff</color></IconStyle></Style><Point><coordinates>130.293176,45.130911,0</coordinates></Point></Placemark>
<Placemark><name>M3C-025</name><description>臂=C_band130 教师类=灌溉耕地</description><Style><IconStyle><color>ff0000ff</color></IconStyle></Style><Point><coordinates>130.229126,42.909826,0</coordinates></Point></Placemark>
<Placemark><name>M3C-026</name><description>臂=C_band130 教师类=灌溉耕地</description><Style><IconStyle><color>ff0000ff</color></IconStyle></Style><Point><coordinates>132.297946,47.440659,0</coordinates></Point></Placemark>
<Placemark><name>M3C-027</name><description>臂=C_band130 教师类=灌溉耕地</description><Style><IconStyle><color>ff0000ff</color></IconStyle></Style><Point><coordinates>131.750423,46.426641,0</coordinates></Point></Placemark>
<Placemark><name>M3C-028</name><description>臂=C_band130 教师类=灌溉耕地</description><Style><IconStyle><color>ff0000ff</color></IconStyle></Style><Point><coordinates>130.286708,44.671512,0</coordinates></Point></Placemark>
<Placemark><name>M3C-029</name><description>臂=C_band130 教师类=灌溉耕地</description><Style><IconStyle><color>ff0000ff</color></IconStyle></Style><Point><coordinates>130.395135,44.819734,0</coordinates></Point></Placemark>
<Placemark><name>M3C-030</name><description>臂=C_band130 教师类=灌溉耕地</description><Style><IconStyle><color>ff0000ff</color></IconStyle></Style><Point><coordinates>130.673523,46.221645,0</coordinates></Point></Placemark>
<Placemark><name>M3C-031</name><description>臂=C_band130 教师类=灌溉耕地</description><Style><IconStyle><color>ff0000ff</color></IconStyle></Style><Point><coordinates>130.603364,47.258121,0</coordinates></Point></Placemark>
<Placemark><name>M3C-032</name><description>臂=C_band130 教师类=灌溉耕地</description><Style><IconStyle><color>ff0000ff</color></IconStyle></Style><Point><coordinates>130.803689,46.091659,0</coordinates></Point></Placemark>
<Placemark><name>M3C-033</name><description>臂=C_band130 教师类=灌溉耕地</description><Style><IconStyle><color>ff0000ff</color></IconStyle></Style><Point><coordinates>132.175775,45.533536,0</coordinates></Point></Placemark>
<Placemark><name>M3C-034</name><description>臂=C_band130 教师类=灌溉耕地</description><Style><IconStyle><color>ff0000ff</color></IconStyle></Style><Point><coordinates>134.474115,48.205664,0</coordinates></Point></Placemark>
<Placemark><name>M3C-035</name><description>臂=C_band130 教师类=灌溉耕地</description><Style><IconStyle><color>ff0000ff</color></IconStyle></Style><Point><coordinates>130.486314,48.852900,0</coordinates></Point></Placemark>
<Placemark><name>M3C-036</name><description>臂=C_band130 教师类=灌溉耕地</description><Style><IconStyle><color>ff0000ff</color></IconStyle></Style><Point><coordinates>130.126898,47.340766,0</coordinates></Point></Placemark>
<Placemark><name>M3C-037</name><description>臂=C_band130 教师类=灌溉耕地</description><Style><IconStyle><color>ff0000ff</color></IconStyle></Style><Point><coordinates>130.106955,46.304380,0</coordinates></Point></Placemark>
<Placemark><name>M3C-038</name><description>臂=C_band130 教师类=灌溉耕地</description><Style><IconStyle><color>ff0000ff</color></IconStyle></Style><Point><coordinates>131.750782,45.239068,0</coordinates></Point></Placemark>
<Placemark><name>M3C-039</name><description>臂=C_band130 教师类=灌溉耕地</description><Style><IconStyle><color>ff0000ff</color></IconStyle></Style><Point><coordinates>130.812851,47.440300,0</coordinates></Point></Placemark>
<Placemark><name>M3C-040</name><description>臂=C_band130 教师类=落叶阔叶林</description><Style><IconStyle><color>ff0000ff</color></IconStyle></Style><Point><coordinates>130.651604,43.809579,0</coordinates></Point></Placemark>
<Placemark><name>M3C-041</name><description>臂=C_band130 教师类=落叶阔叶林</description><Style><IconStyle><color>ff0000ff</color></IconStyle></Style><Point><coordinates>130.844472,43.173841,0</coordinates></Point></Placemark>
<Placemark><name>M3C-042</name><description>臂=C_band130 教师类=落叶阔叶林</description><Style><IconStyle><color>ff0000ff</color></IconStyle></Style><Point><coordinates>130.410047,45.117526,0</coordinates></Point></Placemark>
<Placemark><name>M3C-043</name><description>臂=C_band130 教师类=落叶阔叶林</description><Style><IconStyle><color>ff0000ff</color></IconStyle></Style><Point><coordinates>130.049822,43.222530,0</coordinates></Point></Placemark>
<Placemark><name>M3C-044</name><description>臂=C_band130 教师类=落叶阔叶林</description><Style><IconStyle><color>ff0000ff</color></IconStyle></Style><Point><coordinates>131.185293,45.870853,0</coordinates></Point></Placemark>
<Placemark><name>M3C-045</name><description>臂=C_band130 教师类=落叶阔叶林</description><Style><IconStyle><color>ff0000ff</color></IconStyle></Style><Point><coordinates>130.382648,44.300867,0</coordinates></Point></Placemark>
<Placemark><name>M3C-046</name><description>臂=C_band130 教师类=落叶阔叶林</description><Style><IconStyle><color>ff0000ff</color></IconStyle></Style><Point><coordinates>133.941953,47.123823,0</coordinates></Point></Placemark>
<Placemark><name>M3C-047</name><description>臂=C_band130 教师类=落叶阔叶林</description><Style><IconStyle><color>ff0000ff</color></IconStyle></Style><Point><coordinates>131.034106,46.627055,0</coordinates></Point></Placemark>
<Placemark><name>M3C-048</name><description>臂=C_band130 教师类=落叶阔叶林</description><Style><IconStyle><color>ff0000ff</color></IconStyle></Style><Point><coordinates>133.073641,46.552584,0</coordinates></Point></Placemark>
<Placemark><name>M3C-049</name><description>臂=C_band130 教师类=落叶阔叶林</description><Style><IconStyle><color>ff0000ff</color></IconStyle></Style><Point><coordinates>133.645150,47.384874,0</coordinates></Point></Placemark>
<Placemark><name>M3C-050</name><description>臂=C_band130 教师类=落叶阔叶林</description><Style><IconStyle><color>ff0000ff</color></IconStyle></Style><Point><coordinates>131.032579,43.108534,0</coordinates></Point></Placemark>
<Placemark><name>M3C-051</name><description>臂=C_band130 教师类=落叶阔叶林</description><Style><IconStyle><color>ff0000ff</color></IconStyle></Style><Point><coordinates>131.061415,43.594792,0</coordinates></Point></Placemark>
<Placemark><name>M3C-052</name><description>臂=C_band130 教师类=落叶阔叶林</description><Style><IconStyle><color>ff0000ff</color></IconStyle></Style><Point><coordinates>130.825158,43.269062,0</coordinates></Point></Placemark>
<Placemark><name>M3C-053</name><description>臂=C_band130 教师类=落叶阔叶林</description><Style><IconStyle><color>ff0000ff</color></IconStyle></Style><Point><coordinates>130.931159,46.496799,0</coordinates></Point></Placemark>
<Placemark><name>M3C-054</name><description>臂=C_band130 教师类=落叶阔叶林</description><Style><IconStyle><color>ff0000ff</color></IconStyle></Style><Point><coordinates>130.356687,47.349749,0</coordinates></Point></Placemark>
<Placemark><name>M3C-055</name><description>臂=C_band130 教师类=落叶阔叶林</description><Style><IconStyle><color>ff0000ff</color></IconStyle></Style><Point><coordinates>131.227424,46.441732,0</coordinates></Point></Placemark>
<Placemark><name>M3C-056</name><description>臂=C_band130 教师类=落叶阔叶林</description><Style><IconStyle><color>ff0000ff</color></IconStyle></Style><Point><coordinates>132.134812,46.320280,0</coordinates></Point></Placemark>
<Placemark><name>M3C-057</name><description>臂=C_band130 教师类=落叶阔叶林</description><Style><IconStyle><color>ff0000ff</color></IconStyle></Style><Point><coordinates>133.000069,47.919102,0</coordinates></Point></Placemark>
<Placemark><name>M3C-058</name><description>臂=C_band130 教师类=落叶阔叶林</description><Style><IconStyle><color>ff0000ff</color></IconStyle></Style><Point><coordinates>130.337643,43.366709,0</coordinates></Point></Placemark>
<Placemark><name>M3C-059</name><description>臂=C_band130 教师类=落叶阔叶林</description><Style><IconStyle><color>ff0000ff</color></IconStyle></Style><Point><coordinates>131.443738,45.135492,0</coordinates></Point></Placemark>
<Placemark><name>M3C-060</name><description>臂=C_band130 教师类=常绿针叶林</description><Style><IconStyle><color>ff0000ff</color></IconStyle></Style><Point><coordinates>130.715743,46.705747,0</coordinates></Point></Placemark>
<Placemark><name>M3C-061</name><description>臂=C_band130 教师类=常绿针叶林</description><Style><IconStyle><color>ff0000ff</color></IconStyle></Style><Point><coordinates>131.956856,46.503357,0</coordinates></Point></Placemark>
<Placemark><name>M3C-062</name><description>臂=C_band130 教师类=常绿针叶林</description><Style><IconStyle><color>ff0000ff</color></IconStyle></Style><Point><coordinates>130.891005,44.685526,0</coordinates></Point></Placemark>
<Placemark><name>M3C-063</name><description>臂=C_band130 教师类=常绿针叶林</description><Style><IconStyle><color>ff0000ff</color></IconStyle></Style><Point><coordinates>130.309885,47.645475,0</coordinates></Point></Placemark>
<Placemark><name>M3C-064</name><description>臂=C_band130 教师类=常绿针叶林</description><Style><IconStyle><color>ff0000ff</color></IconStyle></Style><Point><coordinates>130.396033,48.091039,0</coordinates></Point></Placemark>
<Placemark><name>M3C-065</name><description>臂=C_band130 教师类=常绿针叶林</description><Style><IconStyle><color>ff0000ff</color></IconStyle></Style><Point><coordinates>130.536530,43.550774,0</coordinates></Point></Placemark>
<Placemark><name>M3C-066</name><description>臂=C_band130 教师类=常绿针叶林</description><Style><IconStyle><color>ff0000ff</color></IconStyle></Style><Point><coordinates>131.044707,43.427615,0</coordinates></Point></Placemark>
<Placemark><name>M3C-067</name><description>臂=C_band130 教师类=常绿针叶林</description><Style><IconStyle><color>ff0000ff</color></IconStyle></Style><Point><coordinates>130.762097,43.141142,0</coordinates></Point></Placemark>
<Placemark><name>M3C-068</name><description>臂=C_band130 教师类=常绿针叶林</description><Style><IconStyle><color>ff0000ff</color></IconStyle></Style><Point><coordinates>130.655466,43.147431,0</coordinates></Point></Placemark>
<Placemark><name>M3C-069</name><description>臂=C_band130 教师类=常绿针叶林</description><Style><IconStyle><color>ff0000ff</color></IconStyle></Style><Point><coordinates>130.859115,44.946487,0</coordinates></Point></Placemark>
<Placemark><name>M3C-070</name><description>臂=C_band130 教师类=常绿针叶林</description><Style><IconStyle><color>ff0000ff</color></IconStyle></Style><Point><coordinates>131.297582,47.600110,0</coordinates></Point></Placemark>
<Placemark><name>M3C-071</name><description>臂=C_band130 教师类=常绿针叶林</description><Style><IconStyle><color>ff0000ff</color></IconStyle></Style><Point><coordinates>130.124921,43.631623,0</coordinates></Point></Placemark>
<Placemark><name>M3C-072</name><description>臂=C_band130 教师类=常绿针叶林</description><Style><IconStyle><color>ff0000ff</color></IconStyle></Style><Point><coordinates>132.496654,46.096959,0</coordinates></Point></Placemark>
<Placemark><name>M3C-073</name><description>臂=C_band130 教师类=常绿针叶林</description><Style><IconStyle><color>ff0000ff</color></IconStyle></Style><Point><coordinates>131.631845,46.568215,0</coordinates></Point></Placemark>
<Placemark><name>M3C-074</name><description>臂=C_band130 教师类=常绿针叶林</description><Style><IconStyle><color>ff0000ff</color></IconStyle></Style><Point><coordinates>130.484787,48.381734,0</coordinates></Point></Placemark>
<Placemark><name>M3C-075</name><description>臂=C_band130 教师类=常绿针叶林</description><Style><IconStyle><color>ff0000ff</color></IconStyle></Style><Point><coordinates>133.665452,45.991227,0</coordinates></Point></Placemark>
<Placemark><name>M3C-076</name><description>臂=C_band130 教师类=常绿针叶林</description><Style><IconStyle><color>ff0000ff</color></IconStyle></Style><Point><coordinates>130.345278,45.504790,0</coordinates></Point></Placemark>
<Placemark><name>M3C-077</name><description>臂=C_band130 教师类=常绿针叶林</description><Style><IconStyle><color>ff0000ff</color></IconStyle></Style><Point><coordinates>130.037695,47.213385,0</coordinates></Point></Placemark>
<Placemark><name>M3C-078</name><description>臂=C_band130 教师类=常绿针叶林</description><Style><IconStyle><color>ff0000ff</color></IconStyle></Style><Point><coordinates>130.039851,44.406060,0</coordinates></Point></Placemark>
<Placemark><name>M3C-079</name><description>臂=C_band130 教师类=常绿针叶林</description><Style><IconStyle><color>ff0000ff</color></IconStyle></Style><Point><coordinates>130.805934,43.417195,0</coordinates></Point></Placemark>
<Placemark><name>M3C-080</name><description>臂=C_band130 教师类=落叶针叶林</description><Style><IconStyle><color>ff0000ff</color></IconStyle></Style><Point><coordinates>131.000060,43.399049,0</coordinates></Point></Placemark>
<Placemark><name>M3C-081</name><description>臂=C_band130 教师类=落叶针叶林</description><Style><IconStyle><color>ff0000ff</color></IconStyle></Style><Point><coordinates>133.352209,46.393583,0</coordinates></Point></Placemark>
<Placemark><name>M3C-082</name><description>臂=C_band130 教师类=落叶针叶林</description><Style><IconStyle><color>ff0000ff</color></IconStyle></Style><Point><coordinates>133.247016,47.418111,0</coordinates></Point></Placemark>
<Placemark><name>M3C-083</name><description>臂=C_band130 教师类=落叶针叶林</description><Style><IconStyle><color>ff0000ff</color></IconStyle></Style><Point><coordinates>131.269196,44.999667,0</coordinates></Point></Placemark>
<Placemark><name>M3C-084</name><description>臂=C_band130 教师类=落叶针叶林</description><Style><IconStyle><color>ff0000ff</color></IconStyle></Style><Point><coordinates>130.364412,44.892857,0</coordinates></Point></Placemark>
<Placemark><name>M3C-085</name><description>臂=C_band130 教师类=落叶针叶林</description><Style><IconStyle><color>ff0000ff</color></IconStyle></Style><Point><coordinates>131.269196,47.410565,0</coordinates></Point></Placemark>
<Placemark><name>M3C-086</name><description>臂=C_band130 教师类=落叶针叶林</description><Style><IconStyle><color>ff0000ff</color></IconStyle></Style><Point><coordinates>134.404765,48.250311,0</coordinates></Point></Placemark>
<Placemark><name>M3C-087</name><description>臂=C_band130 教师类=落叶针叶林</description><Style><IconStyle><color>ff0000ff</color></IconStyle></Style><Point><coordinates>130.064465,44.390070,0</coordinates></Point></Placemark>
<Placemark><name>M3C-088</name><description>臂=C_band130 教师类=落叶针叶林</description><Style><IconStyle><color>ff0000ff</color></IconStyle></Style><Point><coordinates>131.203529,46.358818,0</coordinates></Point></Placemark>
<Placemark><name>M3C-089</name><description>臂=C_band130 教师类=落叶针叶林</description><Style><IconStyle><color>ff0000ff</color></IconStyle></Style><Point><coordinates>134.648388,48.401048,0</coordinates></Point></Placemark>
<Placemark><name>M3C-090</name><description>臂=C_band130 教师类=落叶针叶林</description><Style><IconStyle><color>ff0000ff</color></IconStyle></Style><Point><coordinates>130.588183,44.417020,0</coordinates></Point></Placemark>
<Placemark><name>M3C-091</name><description>臂=C_band130 教师类=落叶针叶林</description><Style><IconStyle><color>ff0000ff</color></IconStyle></Style><Point><coordinates>130.541201,44.987360,0</coordinates></Point></Placemark>
<Placemark><name>M3C-092</name><description>臂=C_band130 教师类=落叶针叶林</description><Style><IconStyle><color>ff0000ff</color></IconStyle></Style><Point><coordinates>130.968350,45.095068,0</coordinates></Point></Placemark>
<Placemark><name>M3C-093</name><description>臂=C_band130 教师类=落叶针叶林</description><Style><IconStyle><color>ff0000ff</color></IconStyle></Style><Point><coordinates>130.368275,47.625442,0</coordinates></Point></Placemark>
<Placemark><name>M3C-094</name><description>臂=C_band130 教师类=落叶针叶林</description><Style><IconStyle><color>ff0000ff</color></IconStyle></Style><Point><coordinates>131.000060,45.411275,0</coordinates></Point></Placemark>
<Placemark><name>M3C-095</name><description>臂=C_band130 教师类=落叶针叶林</description><Style><IconStyle><color>ff0000ff</color></IconStyle></Style><Point><coordinates>130.322012,45.763415,0</coordinates></Point></Placemark>
<Placemark><name>M3C-096</name><description>臂=C_band130 教师类=落叶针叶林</description><Style><IconStyle><color>ff0000ff</color></IconStyle></Style><Point><coordinates>130.719067,45.504340,0</coordinates></Point></Placemark>
<Placemark><name>M3C-097</name><description>臂=C_band130 教师类=落叶针叶林</description><Style><IconStyle><color>ff0000ff</color></IconStyle></Style><Point><coordinates>130.401513,44.299700,0</coordinates></Point></Placemark>
<Placemark><name>M3C-098</name><description>臂=C_band130 教师类=落叶针叶林</description><Style><IconStyle><color>ff0000ff</color></IconStyle></Style><Point><coordinates>130.098152,46.524377,0</coordinates></Point></Placemark>
<Placemark><name>M3C-099</name><description>臂=C_band130 教师类=落叶针叶林</description><Style><IconStyle><color>ff0000ff</color></IconStyle></Style><Point><coordinates>130.330726,45.660468,0</coordinates></Point></Placemark>
<Placemark><name>M3C-100</name><description>臂=C_band130 教师类=针阔混交林</description><Style><IconStyle><color>ff0000ff</color></IconStyle></Style><Point><coordinates>131.625647,45.620762,0</coordinates></Point></Placemark>
<Placemark><name>M3C-101</name><description>臂=C_band130 教师类=针阔混交林</description><Style><IconStyle><color>ff0000ff</color></IconStyle></Style><Point><coordinates>131.685654,45.657773,0</coordinates></Point></Placemark>
<Placemark><name>M3C-102</name><description>臂=C_band130 教师类=针阔混交林</description><Style><IconStyle><color>ff0000ff</color></IconStyle></Style><Point><coordinates>132.954974,46.786685,0</coordinates></Point></Placemark>
<Placemark><name>M3C-103</name><description>臂=C_band130 教师类=针阔混交林</description><Style><IconStyle><color>ff0000ff</color></IconStyle></Style><Point><coordinates>130.589440,47.792978,0</coordinates></Point></Placemark>
<Placemark><name>M3C-104</name><description>臂=C_band130 教师类=针阔混交林</description><Style><IconStyle><color>ff0000ff</color></IconStyle></Style><Point><coordinates>130.159776,45.892413,0</coordinates></Point></Placemark>
<Placemark><name>M3C-105</name><description>臂=C_band130 教师类=针阔混交林</description><Style><IconStyle><color>ff0000ff</color></IconStyle></Style><Point><coordinates>130.055392,47.580167,0</coordinates></Point></Placemark>
<Placemark><name>M3C-106</name><description>臂=C_band130 教师类=针阔混交林</description><Style><IconStyle><color>ff0000ff</color></IconStyle></Style><Point><coordinates>130.242601,44.355036,0</coordinates></Point></Placemark>
<Placemark><name>M3C-107</name><description>臂=C_band130 教师类=针阔混交林</description><Style><IconStyle><color>ff0000ff</color></IconStyle></Style><Point><coordinates>130.152140,48.696683,0</coordinates></Point></Placemark>
<Placemark><name>M3C-108</name><description>臂=C_band130 教师类=针阔混交林</description><Style><IconStyle><color>ff0000ff</color></IconStyle></Style><Point><coordinates>131.491169,46.261171,0</coordinates></Point></Placemark>
<Placemark><name>M3C-109</name><description>臂=C_band130 教师类=针阔混交林</description><Style><IconStyle><color>ff0000ff</color></IconStyle></Style><Point><coordinates>130.178910,45.525541,0</coordinates></Point></Placemark>
<Placemark><name>M3C-110</name><description>臂=C_band130 教师类=针阔混交林</description><Style><IconStyle><color>ff0000ff</color></IconStyle></Style><Point><coordinates>131.176130,43.827096,0</coordinates></Point></Placemark>
<Placemark><name>M3C-111</name><description>臂=C_band130 教师类=针阔混交林</description><Style><IconStyle><color>ff0000ff</color></IconStyle></Style><Point><coordinates>130.265687,43.446031,0</coordinates></Point></Placemark>
<Placemark><name>M3C-112</name><description>臂=C_band130 教师类=针阔混交林</description><Style><IconStyle><color>ff0000ff</color></IconStyle></Style><Point><coordinates>133.607151,46.900143,0</coordinates></Point></Placemark>
<Placemark><name>M3C-113</name><description>臂=C_band130 教师类=针阔混交林</description><Style><IconStyle><color>ff0000ff</color></IconStyle></Style><Point><coordinates>130.110998,43.366170,0</coordinates></Point></Placemark>
<Placemark><name>M3C-114</name><description>臂=C_band130 教师类=针阔混交林</description><Style><IconStyle><color>ff0000ff</color></IconStyle></Style><Point><coordinates>130.363424,45.858366,0</coordinates></Point></Placemark>
<Placemark><name>M3C-115</name><description>臂=C_band130 教师类=针阔混交林</description><Style><IconStyle><color>ff0000ff</color></IconStyle></Style><Point><coordinates>130.409687,43.301761,0</coordinates></Point></Placemark>
<Placemark><name>M3C-116</name><description>臂=C_band130 教师类=针阔混交林</description><Style><IconStyle><color>ff0000ff</color></IconStyle></Style><Point><coordinates>130.499788,42.966959,0</coordinates></Point></Placemark>
<Placemark><name>M3C-117</name><description>臂=C_band130 教师类=针阔混交林</description><Style><IconStyle><color>ff0000ff</color></IconStyle></Style><Point><coordinates>134.517953,48.345801,0</coordinates></Point></Placemark>
<Placemark><name>M3C-118</name><description>臂=C_band130 教师类=针阔混交林</description><Style><IconStyle><color>ff0000ff</color></IconStyle></Style><Point><coordinates>130.656005,45.033803,0</coordinates></Point></Placemark>
<Placemark><name>M3C-119</name><description>臂=C_band130 教师类=针阔混交林</description><Style><IconStyle><color>ff0000ff</color></IconStyle></Style><Point><coordinates>130.171903,45.753353,0</coordinates></Point></Placemark>
<Placemark><name>M3C-120</name><description>臂=C_band130 教师类=落叶灌丛</description><Style><IconStyle><color>ff0000ff</color></IconStyle></Style><Point><coordinates>130.928554,45.974159,0</coordinates></Point></Placemark>
<Placemark><name>M3C-121</name><description>臂=C_band130 教师类=落叶灌丛</description><Style><IconStyle><color>ff0000ff</color></IconStyle></Style><Point><coordinates>134.191774,47.671885,0</coordinates></Point></Placemark>
<Placemark><name>M3C-122</name><description>臂=C_band130 教师类=落叶灌丛</description><Style><IconStyle><color>ff0000ff</color></IconStyle></Style><Point><coordinates>133.100591,45.761708,0</coordinates></Point></Placemark>
<Placemark><name>M3C-123</name><description>臂=C_band130 教师类=落叶灌丛</description><Style><IconStyle><color>ff0000ff</color></IconStyle></Style><Point><coordinates>131.210985,45.683195,0</coordinates></Point></Placemark>
<Placemark><name>M3C-124</name><description>臂=C_band130 教师类=落叶灌丛</description><Style><IconStyle><color>ff0000ff</color></IconStyle></Style><Point><coordinates>133.188087,46.179694,0</coordinates></Point></Placemark>
<Placemark><name>M3C-125</name><description>臂=C_band130 教师类=落叶灌丛</description><Style><IconStyle><color>ff0000ff</color></IconStyle></Style><Point><coordinates>130.671457,48.186261,0</coordinates></Point></Placemark>
<Placemark><name>M3C-126</name><description>臂=C_band130 教师类=落叶灌丛</description><Style><IconStyle><color>ff0000ff</color></IconStyle></Style><Point><coordinates>131.097078,46.421790,0</coordinates></Point></Placemark>
<Placemark><name>M3C-127</name><description>臂=C_band130 教师类=落叶灌丛</description><Style><IconStyle><color>ff0000ff</color></IconStyle></Style><Point><coordinates>131.512729,47.572621,0</coordinates></Point></Placemark>
<Placemark><name>M3C-128</name><description>臂=C_band130 教师类=落叶灌丛</description><Style><IconStyle><color>ff0000ff</color></IconStyle></Style><Point><coordinates>130.980207,46.009104,0</coordinates></Point></Placemark>
<Placemark><name>M3C-129</name><description>臂=C_band130 教师类=落叶灌丛</description><Style><IconStyle><color>ff0000ff</color></IconStyle></Style><Point><coordinates>130.008769,45.953139,0</coordinates></Point></Placemark>
<Placemark><name>M3C-130</name><description>臂=C_band130 教师类=落叶灌丛</description><Style><IconStyle><color>ff0000ff</color></IconStyle></Style><Point><coordinates>134.280887,47.568579,0</coordinates></Point></Placemark>
<Placemark><name>M3C-131</name><description>臂=C_band130 教师类=落叶灌丛</description><Style><IconStyle><color>ff0000ff</color></IconStyle></Style><Point><coordinates>134.526846,47.492132,0</coordinates></Point></Placemark>
<Placemark><name>M3C-132</name><description>臂=C_band130 教师类=落叶灌丛</description><Style><IconStyle><color>ff0000ff</color></IconStyle></Style><Point><coordinates>130.222658,43.155336,0</coordinates></Point></Placemark>
<Placemark><name>M3C-133</name><description>臂=C_band130 教师类=落叶灌丛</description><Style><IconStyle><color>ff0000ff</color></IconStyle></Style><Point><coordinates>130.297308,47.015756,0</coordinates></Point></Placemark>
<Placemark><name>M3C-134</name><description>臂=C_band130 教师类=落叶灌丛</description><Style><IconStyle><color>ff0000ff</color></IconStyle></Style><Point><coordinates>130.071112,45.121838,0</coordinates></Point></Placemark>
<Placemark><name>M3C-135</name><description>臂=C_band130 教师类=落叶灌丛</description><Style><IconStyle><color>ff0000ff</color></IconStyle></Style><Point><coordinates>130.036168,47.156252,0</coordinates></Point></Placemark>
<Placemark><name>M3C-136</name><description>臂=C_band130 教师类=落叶灌丛</description><Style><IconStyle><color>ff0000ff</color></IconStyle></Style><Point><coordinates>131.752399,46.035784,0</coordinates></Point></Placemark>
<Placemark><name>M3C-137</name><description>臂=C_band130 教师类=落叶灌丛</description><Style><IconStyle><color>ff0000ff</color></IconStyle></Style><Point><coordinates>130.481732,48.390088,0</coordinates></Point></Placemark>
<Placemark><name>M3C-138</name><description>臂=C_band130 教师类=落叶灌丛</description><Style><IconStyle><color>ff0000ff</color></IconStyle></Style><Point><coordinates>133.515972,47.508572,0</coordinates></Point></Placemark>
<Placemark><name>M3C-139</name><description>臂=C_band130 教师类=落叶灌丛</description><Style><IconStyle><color>ff0000ff</color></IconStyle></Style><Point><coordinates>130.448584,47.874006,0</coordinates></Point></Placemark>
<Placemark><name>M3C-140</name><description>臂=C_band130 教师类=草地</description><Style><IconStyle><color>ff0000ff</color></IconStyle></Style><Point><coordinates>130.219245,48.425841,0</coordinates></Point></Placemark>
<Placemark><name>M3C-141</name><description>臂=C_band130 教师类=草地</description><Style><IconStyle><color>ff0000ff</color></IconStyle></Style><Point><coordinates>131.000060,44.615637,0</coordinates></Point></Placemark>
<Placemark><name>M3C-142</name><description>臂=C_band130 教师类=草地</description><Style><IconStyle><color>ff0000ff</color></IconStyle></Style><Point><coordinates>130.009847,48.851733,0</coordinates></Point></Placemark>
<Placemark><name>M3C-143</name><description>臂=C_band130 教师类=草地</description><Style><IconStyle><color>ff0000ff</color></IconStyle></Style><Point><coordinates>131.042910,43.702050,0</coordinates></Point></Placemark>
<Placemark><name>M3C-144</name><description>臂=C_band130 教师类=草地</description><Style><IconStyle><color>ff0000ff</color></IconStyle></Style><Point><coordinates>130.002751,47.325854,0</coordinates></Point></Placemark>
<Placemark><name>M3C-145</name><description>臂=C_band130 教师类=草地</description><Style><IconStyle><color>ff0000ff</color></IconStyle></Style><Point><coordinates>130.360460,48.626076,0</coordinates></Point></Placemark>
<Placemark><name>M3C-146</name><description>臂=C_band130 教师类=草地</description><Style><IconStyle><color>ff0000ff</color></IconStyle></Style><Point><coordinates>130.098781,47.804387,0</coordinates></Point></Placemark>
<Placemark><name>M3C-147</name><description>臂=C_band130 教师类=草地</description><Style><IconStyle><color>ff0000ff</color></IconStyle></Style><Point><coordinates>130.116208,47.921707,0</coordinates></Point></Placemark>
<Placemark><name>M3C-148</name><description>臂=C_band130 教师类=草地</description><Style><IconStyle><color>ff0000ff</color></IconStyle></Style><Point><coordinates>131.000060,44.257838,0</coordinates></Point></Placemark>
<Placemark><name>M3C-149</name><description>臂=C_band130 教师类=草地</description><Style><IconStyle><color>ff0000ff</color></IconStyle></Style><Point><coordinates>131.217902,44.971999,0</coordinates></Point></Placemark>
<Placemark><name>M3C-150</name><description>臂=C_band130 教师类=草地</description><Style><IconStyle><color>ff0000ff</color></IconStyle></Style><Point><coordinates>134.132396,48.125535,0</coordinates></Point></Placemark>
<Placemark><name>M3C-151</name><description>臂=C_band130 教师类=草地</description><Style><IconStyle><color>ff0000ff</color></IconStyle></Style><Point><coordinates>130.574528,42.636469,0</coordinates></Point></Placemark>
<Placemark><name>M3C-152</name><description>臂=C_band130 教师类=草地</description><Style><IconStyle><color>ff0000ff</color></IconStyle></Style><Point><coordinates>130.435289,47.946410,0</coordinates></Point></Placemark>
<Placemark><name>M3C-153</name><description>臂=C_band130 教师类=草地</description><Style><IconStyle><color>ff0000ff</color></IconStyle></Style><Point><coordinates>130.150973,47.399965,0</coordinates></Point></Placemark>
<Placemark><name>M3C-154</name><description>臂=C_band130 教师类=草地</description><Style><IconStyle><color>ff0000ff</color></IconStyle></Style><Point><coordinates>130.523055,48.564272,0</coordinates></Point></Placemark>
<Placemark><name>M3C-155</name><description>臂=C_band130 教师类=草地</description><Style><IconStyle><color>ff0000ff</color></IconStyle></Style><Point><coordinates>130.578301,47.752734,0</coordinates></Point></Placemark>
<Placemark><name>M3C-156</name><description>臂=C_band130 教师类=草地</description><Style><IconStyle><color>ff0000ff</color></IconStyle></Style><Point><coordinates>130.347434,47.879486,0</coordinates></Point></Placemark>
<Placemark><name>M3C-157</name><description>臂=C_band130 教师类=草地</description><Style><IconStyle><color>ff0000ff</color></IconStyle></Style><Point><coordinates>130.141271,47.795763,0</coordinates></Point></Placemark>
<Placemark><name>M3C-158</name><description>臂=C_band130 教师类=草地</description><Style><IconStyle><color>ff0000ff</color></IconStyle></Style><Point><coordinates>130.353273,47.836008,0</coordinates></Point></Placemark>
<Placemark><name>M3C-159</name><description>臂=C_band130 教师类=草地</description><Style><IconStyle><color>ff0000ff</color></IconStyle></Style><Point><coordinates>130.975087,44.372643,0</coordinates></Point></Placemark>
<Placemark><name>M3C-160</name><description>臂=C_band130 教师类=木本沼泽</description><Style><IconStyle><color>ff0000ff</color></IconStyle></Style><Point><coordinates>133.926322,48.046123,0</coordinates></Point></Placemark>
<Placemark><name>M3C-161</name><description>臂=C_band130 教师类=木本沼泽</description><Style><IconStyle><color>ff0000ff</color></IconStyle></Style><Point><coordinates>134.668331,47.620771,0</coordinates></Point></Placemark>
<Placemark><name>M3C-162</name><description>臂=C_band130 教师类=木本沼泽</description><Style><IconStyle><color>ff0000ff</color></IconStyle></Style><Point><coordinates>130.493051,48.231356,0</coordinates></Point></Placemark>
<Placemark><name>M3C-163</name><description>臂=C_band130 教师类=木本沼泽</description><Style><IconStyle><color>ff0000ff</color></IconStyle></Style><Point><coordinates>132.039411,46.451434,0</coordinates></Point></Placemark>
<Placemark><name>M3C-164</name><description>臂=C_band130 教师类=木本沼泽</description><Style><IconStyle><color>ff0000ff</color></IconStyle></Style><Point><coordinates>133.166617,46.854778,0</coordinates></Point></Placemark>
<Placemark><name>M3C-165</name><description>臂=C_band130 教师类=木本沼泽</description><Style><IconStyle><color>ff0000ff</color></IconStyle></Style><Point><coordinates>133.958572,47.726772,0</coordinates></Point></Placemark>
<Placemark><name>M3C-166</name><description>臂=C_band130 教师类=木本沼泽</description><Style><IconStyle><color>ff0000ff</color></IconStyle></Style><Point><coordinates>132.025667,46.529498,0</coordinates></Point></Placemark>
<Placemark><name>M3C-167</name><description>臂=C_band130 教师类=木本沼泽</description><Style><IconStyle><color>ff0000ff</color></IconStyle></Style><Point><coordinates>131.223112,43.759004,0</coordinates></Point></Placemark>
<Placemark><name>M3C-168</name><description>臂=C_band130 教师类=木本沼泽</description><Style><IconStyle><color>ff0000ff</color></IconStyle></Style><Point><coordinates>131.708023,46.153463,0</coordinates></Point></Placemark>
<Placemark><name>M3C-169</name><description>臂=C_band130 教师类=木本沼泽</description><Style><IconStyle><color>ff0000ff</color></IconStyle></Style><Point><coordinates>132.766687,46.184545,0</coordinates></Point></Placemark>
<Placemark><name>M3C-170</name><description>臂=C_band130 教师类=木本沼泽</description><Style><IconStyle><color>ff0000ff</color></IconStyle></Style><Point><coordinates>131.587019,45.196937,0</coordinates></Point></Placemark>
<Placemark><name>M3C-171</name><description>臂=C_band130 教师类=木本沼泽</description><Style><IconStyle><color>ff0000ff</color></IconStyle></Style><Point><coordinates>132.010934,46.058781,0</coordinates></Point></Placemark>
<Placemark><name>M3C-172</name><description>臂=C_band130 教师类=木本沼泽</description><Style><IconStyle><color>ff0000ff</color></IconStyle></Style><Point><coordinates>130.585937,48.300077,0</coordinates></Point></Placemark>
<Placemark><name>M3C-173</name><description>臂=C_band130 教师类=木本沼泽</description><Style><IconStyle><color>ff0000ff</color></IconStyle></Style><Point><coordinates>130.838363,48.301694,0</coordinates></Point></Placemark>
<Placemark><name>M3C-174</name><description>臂=C_band130 教师类=木本沼泽</description><Style><IconStyle><color>ff0000ff</color></IconStyle></Style><Point><coordinates>134.575445,48.106311,0</coordinates></Point></Placemark>
<Placemark><name>M3C-175</name><description>臂=C_band130 教师类=木本沼泽</description><Style><IconStyle><color>ff0000ff</color></IconStyle></Style><Point><coordinates>130.734878,48.334483,0</coordinates></Point></Placemark>
<Placemark><name>M3C-176</name><description>臂=C_band130 教师类=木本沼泽</description><Style><IconStyle><color>ff0000ff</color></IconStyle></Style><Point><coordinates>134.137337,47.101275,0</coordinates></Point></Placemark>
<Placemark><name>M3C-177</name><description>臂=C_band130 教师类=木本沼泽</description><Style><IconStyle><color>ff0000ff</color></IconStyle></Style><Point><coordinates>133.462163,47.915778,0</coordinates></Point></Placemark>
<Placemark><name>M3C-178</name><description>臂=C_band130 教师类=木本沼泽</description><Style><IconStyle><color>ff0000ff</color></IconStyle></Style><Point><coordinates>130.319497,46.496979,0</coordinates></Point></Placemark>
<Placemark><name>M3C-179</name><description>臂=C_band130 教师类=木本沼泽</description><Style><IconStyle><color>ff0000ff</color></IconStyle></Style><Point><coordinates>133.131493,45.127587,0</coordinates></Point></Placemark>
<Placemark><name>M3C-180</name><description>臂=C_band130 教师类=草本沼泽</description><Style><IconStyle><color>ff0000ff</color></IconStyle></Style><Point><coordinates>130.497363,48.603079,0</coordinates></Point></Placemark>
<Placemark><name>M3C-181</name><description>臂=C_band130 教师类=草本沼泽</description><Style><IconStyle><color>ff0000ff</color></IconStyle></Style><Point><coordinates>130.419569,47.558877,0</coordinates></Point></Placemark>
<Placemark><name>M3C-182</name><description>臂=C_band130 教师类=草本沼泽</description><Style><IconStyle><color>ff0000ff</color></IconStyle></Style><Point><coordinates>133.146585,46.032460,0</coordinates></Point></Placemark>
<Placemark><name>M3C-183</name><description>臂=C_band130 教师类=草本沼泽</description><Style><IconStyle><color>ff0000ff</color></IconStyle></Style><Point><coordinates>132.247461,46.331240,0</coordinates></Point></Placemark>
<Placemark><name>M3C-184</name><description>臂=C_band130 教师类=草本沼泽</description><Style><IconStyle><color>ff0000ff</color></IconStyle></Style><Point><coordinates>132.331453,45.493291,0</coordinates></Point></Placemark>
<Placemark><name>M3C-185</name><description>臂=C_band130 教师类=草本沼泽</description><Style><IconStyle><color>ff0000ff</color></IconStyle></Style><Point><coordinates>130.839801,47.508572,0</coordinates></Point></Placemark>
<Placemark><name>M3C-186</name><description>臂=C_band130 教师类=草本沼泽</description><Style><IconStyle><color>ff0000ff</color></IconStyle></Style><Point><coordinates>130.568420,45.352435,0</coordinates></Point></Placemark>
<Placemark><name>M3C-187</name><description>臂=C_band130 教师类=草本沼泽</description><Style><IconStyle><color>ff0000ff</color></IconStyle></Style><Point><coordinates>131.265602,46.043419,0</coordinates></Point></Placemark>
<Placemark><name>M3C-188</name><description>臂=C_band130 教师类=草本沼泽</description><Style><IconStyle><color>ff0000ff</color></IconStyle></Style><Point><coordinates>133.632573,45.970836,0</coordinates></Point></Placemark>
<Placemark><name>M3C-189</name><description>臂=C_band130 教师类=草本沼泽</description><Style><IconStyle><color>ff0000ff</color></IconStyle></Style><Point><coordinates>132.961621,47.873737,0</coordinates></Point></Placemark>
<Placemark><name>M3C-190</name><description>臂=C_band130 教师类=草本沼泽</description><Style><IconStyle><color>ff0000ff</color></IconStyle></Style><Point><coordinates>132.862627,47.924402,0</coordinates></Point></Placemark>
<Placemark><name>M3C-191</name><description>臂=C_band130 教师类=草本沼泽</description><Style><IconStyle><color>ff0000ff</color></IconStyle></Style><Point><coordinates>133.510312,45.886124,0</coordinates></Point></Placemark>
<Placemark><name>M3C-192</name><description>臂=C_band130 教师类=草本沼泽</description><Style><IconStyle><color>ff0000ff</color></IconStyle></Style><Point><coordinates>130.891454,44.280655,0</coordinates></Point></Placemark>
<Placemark><name>M3C-193</name><description>臂=C_band130 教师类=草本沼泽</description><Style><IconStyle><color>ff0000ff</color></IconStyle></Style><Point><coordinates>130.506885,45.278594,0</coordinates></Point></Placemark>
<Placemark><name>M3C-194</name><description>臂=C_band130 教师类=草本沼泽</description><Style><IconStyle><color>ff0000ff</color></IconStyle></Style><Point><coordinates>131.094204,45.795934,0</coordinates></Point></Placemark>
<Placemark><name>M3C-195</name><description>臂=C_band130 教师类=草本沼泽</description><Style><IconStyle><color>ff0000ff</color></IconStyle></Style><Point><coordinates>132.626280,45.986826,0</coordinates></Point></Placemark>
<Placemark><name>M3C-196</name><description>臂=C_band130 教师类=草本沼泽</description><Style><IconStyle><color>ff0000ff</color></IconStyle></Style><Point><coordinates>133.677848,46.350374,0</coordinates></Point></Placemark>
<Placemark><name>M3C-197</name><description>臂=C_band130 教师类=草本沼泽</description><Style><IconStyle><color>ff0000ff</color></IconStyle></Style><Point><coordinates>130.851928,47.907424,0</coordinates></Point></Placemark>
<Placemark><name>M3C-198</name><description>臂=C_band130 教师类=草本沼泽</description><Style><IconStyle><color>ff0000ff</color></IconStyle></Style><Point><coordinates>134.574726,48.350922,0</coordinates></Point></Placemark>
<Placemark><name>M3C-199</name><description>臂=C_band130 教师类=草本沼泽</description><Style><IconStyle><color>ff0000ff</color></IconStyle></Style><Point><coordinates>132.682784,46.608819,0</coordinates></Point></Placemark>
<Placemark><name>M3C-200</name><description>臂=C_band130 教师类=湖河滩地</description><Style><IconStyle><color>ff0000ff</color></IconStyle></Style><Point><coordinates>132.876641,45.610431,0</coordinates></Point></Placemark>
<Placemark><name>M3C-201</name><description>臂=C_band130 教师类=湖河滩地</description><Style><IconStyle><color>ff0000ff</color></IconStyle></Style><Point><coordinates>130.492153,45.690292,0</coordinates></Point></Placemark>
<Placemark><name>M3C-202</name><description>臂=C_band130 教师类=湖河滩地</description><Style><IconStyle><color>ff0000ff</color></IconStyle></Style><Point><coordinates>132.388496,46.428437,0</coordinates></Point></Placemark>
<Placemark><name>M3C-203</name><description>臂=C_band130 教师类=湖河滩地</description><Style><IconStyle><color>ff0000ff</color></IconStyle></Style><Point><coordinates>132.796601,46.765665,0</coordinates></Point></Placemark>
<Placemark><name>M3C-204</name><description>臂=C_band130 教师类=湖河滩地</description><Style><IconStyle><color>ff0000ff</color></IconStyle></Style><Point><coordinates>131.279077,45.280390,0</coordinates></Point></Placemark>
<Placemark><name>M3C-205</name><description>臂=C_band130 教师类=湖河滩地</description><Style><IconStyle><color>ff0000ff</color></IconStyle></Style><Point><coordinates>132.195089,46.634241,0</coordinates></Point></Placemark>
<Placemark><name>M3C-206</name><description>臂=C_band130 教师类=湖河滩地</description><Style><IconStyle><color>ff0000ff</color></IconStyle></Style><Point><coordinates>131.628971,45.179420,0</coordinates></Point></Placemark>
<Placemark><name>M3C-207</name><description>臂=C_band130 教师类=湖河滩地</description><Style><IconStyle><color>ff0000ff</color></IconStyle></Style><Point><coordinates>130.608844,48.765764,0</coordinates></Point></Placemark>
<Placemark><name>M3C-208</name><description>臂=C_band130 教师类=湖河滩地</description><Style><IconStyle><color>ff0000ff</color></IconStyle></Style><Point><coordinates>130.766588,47.995997,0</coordinates></Point></Placemark>
<Placemark><name>M3C-209</name><description>臂=C_band130 教师类=湖河滩地</description><Style><IconStyle><color>ff0000ff</color></IconStyle></Style><Point><coordinates>130.326683,48.541005,0</coordinates></Point></Placemark>
<Placemark><name>M3C-210</name><description>臂=C_band130 教师类=湖河滩地</description><Style><IconStyle><color>ff0000ff</color></IconStyle></Style><Point><coordinates>133.183685,46.141605,0</coordinates></Point></Placemark>
<Placemark><name>M3C-211</name><description>臂=C_band130 教师类=湖河滩地</description><Style><IconStyle><color>ff0000ff</color></IconStyle></Style><Point><coordinates>130.644058,47.547918,0</coordinates></Point></Placemark>
<Placemark><name>M3C-212</name><description>臂=C_band130 教师类=湖河滩地</description><Style><IconStyle><color>ff0000ff</color></IconStyle></Style><Point><coordinates>130.034371,47.809777,0</coordinates></Point></Placemark>
<Placemark><name>M3C-213</name><description>臂=C_band130 教师类=湖河滩地</description><Style><IconStyle><color>ff0000ff</color></IconStyle></Style><Point><coordinates>134.300471,48.219139,0</coordinates></Point></Placemark>
<Placemark><name>M3C-214</name><description>臂=C_band130 教师类=湖河滩地</description><Style><IconStyle><color>ff0000ff</color></IconStyle></Style><Point><coordinates>132.339808,47.617268,0</coordinates></Point></Placemark>
<Placemark><name>M3C-215</name><description>臂=C_band130 教师类=湖河滩地</description><Style><IconStyle><color>ff0000ff</color></IconStyle></Style><Point><coordinates>130.794436,46.348218,0</coordinates></Point></Placemark>
<Placemark><name>M3C-216</name><description>臂=C_band130 教师类=湖河滩地</description><Style><IconStyle><color>ff0000ff</color></IconStyle></Style><Point><coordinates>131.719970,47.704764,0</coordinates></Point></Placemark>
<Placemark><name>M3C-217</name><description>臂=C_band130 教师类=湖河滩地</description><Style><IconStyle><color>ff0000ff</color></IconStyle></Style><Point><coordinates>132.790313,46.117081,0</coordinates></Point></Placemark>
<Placemark><name>M3C-218</name><description>臂=C_band130 教师类=湖河滩地</description><Style><IconStyle><color>ff0000ff</color></IconStyle></Style><Point><coordinates>132.684940,46.199547,0</coordinates></Point></Placemark>
<Placemark><name>M3C-219</name><description>臂=C_band130 教师类=湖河滩地</description><Style><IconStyle><color>ff0000ff</color></IconStyle></Style><Point><coordinates>132.453265,46.451704,0</coordinates></Point></Placemark>
<Placemark><name>M3C-220</name><description>臂=C_band130 教师类=不透水面</description><Style><IconStyle><color>ff0000ff</color></IconStyle></Style><Point><coordinates>130.354351,42.794572,0</coordinates></Point></Placemark>
<Placemark><name>M3C-221</name><description>臂=C_band130 教师类=不透水面</description><Style><IconStyle><color>ff0000ff</color></IconStyle></Style><Point><coordinates>134.408718,48.354964,0</coordinates></Point></Placemark>
<Placemark><name>M3C-222</name><description>臂=C_band130 教师类=不透水面</description><Style><IconStyle><color>ff0000ff</color></IconStyle></Style><Point><coordinates>130.588362,47.097053,0</coordinates></Point></Placemark>
<Placemark><name>M3C-223</name><description>臂=C_band130 教师类=不透水面</description><Style><IconStyle><color>ff0000ff</color></IconStyle></Style><Point><coordinates>133.848888,46.872564,0</coordinates></Point></Placemark>
<Placemark><name>M3C-224</name><description>臂=C_band130 教师类=不透水面</description><Style><IconStyle><color>ff0000ff</color></IconStyle></Style><Point><coordinates>130.465203,47.287406,0</coordinates></Point></Placemark>
<Placemark><name>M3C-225</name><description>臂=C_band130 教师类=不透水面</description><Style><IconStyle><color>ff0000ff</color></IconStyle></Style><Point><coordinates>130.026466,46.898975,0</coordinates></Point></Placemark>
<Placemark><name>M3C-226</name><description>臂=C_band130 教师类=不透水面</description><Style><IconStyle><color>ff0000ff</color></IconStyle></Style><Point><coordinates>130.611269,45.206100,0</coordinates></Point></Placemark>
<Placemark><name>M3C-227</name><description>臂=C_band130 教师类=不透水面</description><Style><IconStyle><color>ff0000ff</color></IconStyle></Style><Point><coordinates>130.300003,47.097592,0</coordinates></Point></Placemark>
<Placemark><name>M3C-228</name><description>臂=C_band130 教师类=不透水面</description><Style><IconStyle><color>ff0000ff</color></IconStyle></Style><Point><coordinates>130.885525,45.193344,0</coordinates></Point></Placemark>
<Placemark><name>M3C-229</name><description>臂=C_band130 教师类=不透水面</description><Style><IconStyle><color>ff0000ff</color></IconStyle></Style><Point><coordinates>131.382114,45.387110,0</coordinates></Point></Placemark>
<Placemark><name>M3C-230</name><description>臂=C_band130 教师类=不透水面</description><Style><IconStyle><color>ff0000ff</color></IconStyle></Style><Point><coordinates>133.082625,46.208979,0</coordinates></Point></Placemark>
<Placemark><name>M3C-231</name><description>臂=C_band130 教师类=不透水面</description><Style><IconStyle><color>ff0000ff</color></IconStyle></Style><Point><coordinates>130.886154,45.799976,0</coordinates></Point></Placemark>
<Placemark><name>M3C-232</name><description>臂=C_band130 教师类=不透水面</description><Style><IconStyle><color>ff0000ff</color></IconStyle></Style><Point><coordinates>130.259938,47.079985,0</coordinates></Point></Placemark>
<Placemark><name>M3C-233</name><description>臂=C_band130 教师类=不透水面</description><Style><IconStyle><color>ff0000ff</color></IconStyle></Style><Point><coordinates>131.959191,46.716797,0</coordinates></Point></Placemark>
<Placemark><name>M3C-234</name><description>臂=C_band130 教师类=不透水面</description><Style><IconStyle><color>ff0000ff</color></IconStyle></Style><Point><coordinates>131.203888,46.993028,0</coordinates></Point></Placemark>
<Placemark><name>M3C-235</name><description>臂=C_band130 教师类=不透水面</description><Style><IconStyle><color>ff0000ff</color></IconStyle></Style><Point><coordinates>130.662384,46.696944,0</coordinates></Point></Placemark>
<Placemark><name>M3C-236</name><description>臂=C_band130 教师类=不透水面</description><Style><IconStyle><color>ff0000ff</color></IconStyle></Style><Point><coordinates>130.601388,45.824230,0</coordinates></Point></Placemark>
<Placemark><name>M3C-237</name><description>臂=C_band130 教师类=不透水面</description><Style><IconStyle><color>ff0000ff</color></IconStyle></Style><Point><coordinates>133.429554,46.086718,0</coordinates></Point></Placemark>
<Placemark><name>M3C-238</name><description>臂=C_band130 教师类=不透水面</description><Style><IconStyle><color>ff0000ff</color></IconStyle></Style><Point><coordinates>132.180626,46.576839,0</coordinates></Point></Placemark>
<Placemark><name>M3C-239</name><description>臂=C_band130 教师类=不透水面</description><Style><IconStyle><color>ff0000ff</color></IconStyle></Style><Point><coordinates>130.250865,44.231428,0</coordinates></Point></Placemark>
<Placemark><name>M3C-240</name><description>臂=C_band130 教师类=水体</description><Style><IconStyle><color>ff0000ff</color></IconStyle></Style><Point><coordinates>131.896579,45.375522,0</coordinates></Point></Placemark>
<Placemark><name>M3C-241</name><description>臂=C_band130 教师类=水体</description><Style><IconStyle><color>ff0000ff</color></IconStyle></Style><Point><coordinates>131.550189,47.251384,0</coordinates></Point></Placemark>
<Placemark><name>M3C-242</name><description>臂=C_band130 教师类=水体</description><Style><IconStyle><color>ff0000ff</color></IconStyle></Style><Point><coordinates>131.403853,46.798723,0</coordinates></Point></Placemark>
<Placemark><name>M3C-243</name><description>臂=C_band130 教师类=水体</description><Style><IconStyle><color>ff0000ff</color></IconStyle></Style><Point><coordinates>131.986051,45.438314,0</coordinates></Point></Placemark>
<Placemark><name>M3C-244</name><description>臂=C_band130 教师类=水体</description><Style><IconStyle><color>ff0000ff</color></IconStyle></Style><Point><coordinates>130.235055,45.345069,0</coordinates></Point></Placemark>
<Placemark><name>M3C-245</name><description>臂=C_band130 教师类=水体</description><Style><IconStyle><color>ff0000ff</color></IconStyle></Style><Point><coordinates>131.963953,45.563809,0</coordinates></Point></Placemark>
<Placemark><name>M3C-246</name><description>臂=C_band130 教师类=水体</description><Style><IconStyle><color>ff0000ff</color></IconStyle></Style><Point><coordinates>132.842774,47.806004,0</coordinates></Point></Placemark>
<Placemark><name>M3C-247</name><description>臂=C_band130 教师类=水体</description><Style><IconStyle><color>ff0000ff</color></IconStyle></Style><Point><coordinates>132.310702,45.185888,0</coordinates></Point></Placemark>
<Placemark><name>M3C-248</name><description>臂=C_band130 教师类=水体</description><Style><IconStyle><color>ff0000ff</color></IconStyle></Style><Point><coordinates>132.436287,45.843275,0</coordinates></Point></Placemark>
<Placemark><name>M3C-249</name><description>臂=C_band130 教师类=水体</description><Style><IconStyle><color>ff0000ff</color></IconStyle></Style><Point><coordinates>131.261111,47.203953,0</coordinates></Point></Placemark>
<Placemark><name>M3C-250</name><description>臂=C_band130 教师类=水体</description><Style><IconStyle><color>ff0000ff</color></IconStyle></Style><Point><coordinates>130.925770,47.204402,0</coordinates></Point></Placemark>
<Placemark><name>M3C-251</name><description>臂=C_band130 教师类=水体</description><Style><IconStyle><color>ff0000ff</color></IconStyle></Style><Point><coordinates>133.987498,48.301065,0</coordinates></Point></Placemark>
<Placemark><name>M3C-252</name><description>臂=C_band130 教师类=水体</description><Style><IconStyle><color>ff0000ff</color></IconStyle></Style><Point><coordinates>131.999705,47.330885,0</coordinates></Point></Placemark>
<Placemark><name>M3C-253</name><description>臂=C_band130 教师类=水体</description><Style><IconStyle><color>ff0000ff</color></IconStyle></Style><Point><coordinates>132.779443,45.310394,0</coordinates></Point></Placemark>
<Placemark><name>M3C-254</name><description>臂=C_band130 教师类=水体</description><Style><IconStyle><color>ff0000ff</color></IconStyle></Style><Point><coordinates>130.842586,46.164602,0</coordinates></Point></Placemark>
<Placemark><name>M3C-255</name><description>臂=C_band130 教师类=水体</description><Style><IconStyle><color>ff0000ff</color></IconStyle></Style><Point><coordinates>134.600418,48.287950,0</coordinates></Point></Placemark>
<Placemark><name>M3C-256</name><description>臂=C_band130 教师类=水体</description><Style><IconStyle><color>ff0000ff</color></IconStyle></Style><Point><coordinates>130.951102,45.437506,0</coordinates></Point></Placemark>
<Placemark><name>M3C-257</name><description>臂=C_band130 教师类=水体</description><Style><IconStyle><color>ff0000ff</color></IconStyle></Style><Point><coordinates>131.260123,46.680594,0</coordinates></Point></Placemark>
<Placemark><name>M3C-258</name><description>臂=C_band130 教师类=水体</description><Style><IconStyle><color>ff0000ff</color></IconStyle></Style><Point><coordinates>130.540033,48.259833,0</coordinates></Point></Placemark>
<Placemark><name>M3C-259</name><description>臂=C_band130 教师类=水体</description><Style><IconStyle><color>ff0000ff</color></IconStyle></Style><Point><coordinates>134.288164,48.128589,0</coordinates></Point></Placemark>
<Placemark><name>M3D-000</name><description>臂=D_control_base 教师类=草本旱地</description><Style><IconStyle><color>ff00ff00</color></IconStyle></Style><Point><coordinates>130.395359,43.118999,0</coordinates></Point></Placemark>
<Placemark><name>M3D-001</name><description>臂=D_control_base 教师类=草本旱地</description><Style><IconStyle><color>ff00ff00</color></IconStyle></Style><Point><coordinates>133.110517,46.023612,0</coordinates></Point></Placemark>
<Placemark><name>M3D-002</name><description>臂=D_control_base 教师类=草本旱地</description><Style><IconStyle><color>ff00ff00</color></IconStyle></Style><Point><coordinates>133.656244,45.987499,0</coordinates></Point></Placemark>
<Placemark><name>M3D-003</name><description>臂=D_control_base 教师类=草本旱地</description><Style><IconStyle><color>ff00ff00</color></IconStyle></Style><Point><coordinates>133.957000,48.032424,0</coordinates></Point></Placemark>
<Placemark><name>M3D-004</name><description>臂=D_control_base 教师类=草本旱地</description><Style><IconStyle><color>ff00ff00</color></IconStyle></Style><Point><coordinates>131.417013,45.392186,0</coordinates></Point></Placemark>
<Placemark><name>M3D-005</name><description>臂=D_control_base 教师类=草本旱地</description><Style><IconStyle><color>ff00ff00</color></IconStyle></Style><Point><coordinates>130.346311,48.551201,0</coordinates></Point></Placemark>
<Placemark><name>M3D-006</name><description>臂=D_control_base 教师类=草本旱地</description><Style><IconStyle><color>ff00ff00</color></IconStyle></Style><Point><coordinates>129.996238,48.843333,0</coordinates></Point></Placemark>
<Placemark><name>M3D-007</name><description>臂=D_control_base 教师类=草本旱地</description><Style><IconStyle><color>ff00ff00</color></IconStyle></Style><Point><coordinates>131.695132,45.680275,0</coordinates></Point></Placemark>
<Placemark><name>M3D-008</name><description>臂=D_control_base 教师类=草本旱地</description><Style><IconStyle><color>ff00ff00</color></IconStyle></Style><Point><coordinates>130.387544,48.622078,0</coordinates></Point></Placemark>
<Placemark><name>M3D-009</name><description>臂=D_control_base 教师类=草本旱地</description><Style><IconStyle><color>ff00ff00</color></IconStyle></Style><Point><coordinates>130.538191,45.008964,0</coordinates></Point></Placemark>
<Placemark><name>M3D-010</name><description>臂=D_control_base 教师类=草本旱地</description><Style><IconStyle><color>ff00ff00</color></IconStyle></Style><Point><coordinates>134.632084,48.288983,0</coordinates></Point></Placemark>
<Placemark><name>M3D-011</name><description>臂=D_control_base 教师类=草本旱地</description><Style><IconStyle><color>ff00ff00</color></IconStyle></Style><Point><coordinates>133.503440,45.909346,0</coordinates></Point></Placemark>
<Placemark><name>M3D-012</name><description>臂=D_control_base 教师类=草本旱地</description><Style><IconStyle><color>ff00ff00</color></IconStyle></Style><Point><coordinates>133.174118,46.845570,0</coordinates></Point></Placemark>
<Placemark><name>M3D-013</name><description>臂=D_control_base 教师类=草本旱地</description><Style><IconStyle><color>ff00ff00</color></IconStyle></Style><Point><coordinates>131.380093,45.411320,0</coordinates></Point></Placemark>
<Placemark><name>M3D-014</name><description>臂=D_control_base 教师类=草本旱地</description><Style><IconStyle><color>ff00ff00</color></IconStyle></Style><Point><coordinates>132.447022,46.449413,0</coordinates></Point></Placemark>
<Placemark><name>M3D-015</name><description>臂=D_control_base 教师类=灌溉耕地</description><Style><IconStyle><color>ff00ff00</color></IconStyle></Style><Point><coordinates>131.992115,45.568705,0</coordinates></Point></Placemark>
<Placemark><name>M3D-016</name><description>臂=D_control_base 教师类=灌溉耕地</description><Style><IconStyle><color>ff00ff00</color></IconStyle></Style><Point><coordinates>134.267996,47.569702,0</coordinates></Point></Placemark>
<Placemark><name>M3D-017</name><description>臂=D_control_base 教师类=灌溉耕地</description><Style><IconStyle><color>ff00ff00</color></IconStyle></Style><Point><coordinates>132.191810,46.659888,0</coordinates></Point></Placemark>
<Placemark><name>M3D-018</name><description>臂=D_control_base 教师类=灌溉耕地</description><Style><IconStyle><color>ff00ff00</color></IconStyle></Style><Point><coordinates>130.875329,43.712965,0</coordinates></Point></Placemark>
<Placemark><name>M3D-019</name><description>臂=D_control_base 教师类=灌溉耕地</description><Style><IconStyle><color>ff00ff00</color></IconStyle></Style><Point><coordinates>131.270947,46.021456,0</coordinates></Point></Placemark>
<Placemark><name>M3D-020</name><description>臂=D_control_base 教师类=灌溉耕地</description><Style><IconStyle><color>ff00ff00</color></IconStyle></Style><Point><coordinates>130.343347,42.785095,0</coordinates></Point></Placemark>
<Placemark><name>M3D-021</name><description>臂=D_control_base 教师类=灌溉耕地</description><Style><IconStyle><color>ff00ff00</color></IconStyle></Style><Point><coordinates>130.338496,42.806655,0</coordinates></Point></Placemark>
<Placemark><name>M3D-022</name><description>臂=D_control_base 教师类=灌溉耕地</description><Style><IconStyle><color>ff00ff00</color></IconStyle></Style><Point><coordinates>132.362400,46.429470,0</coordinates></Point></Placemark>
<Placemark><name>M3D-023</name><description>臂=D_control_base 教师类=灌溉耕地</description><Style><IconStyle><color>ff00ff00</color></IconStyle></Style><Point><coordinates>131.254239,45.285466,0</coordinates></Point></Placemark>
<Placemark><name>M3D-024</name><description>臂=D_control_base 教师类=灌溉耕地</description><Style><IconStyle><color>ff00ff00</color></IconStyle></Style><Point><coordinates>132.854228,45.598080,0</coordinates></Point></Placemark>
<Placemark><name>M3D-025</name><description>臂=D_control_base 教师类=灌溉耕地</description><Style><IconStyle><color>ff00ff00</color></IconStyle></Style><Point><coordinates>132.209058,46.566913,0</coordinates></Point></Placemark>
<Placemark><name>M3D-026</name><description>臂=D_control_base 教师类=灌溉耕地</description><Style><IconStyle><color>ff00ff00</color></IconStyle></Style><Point><coordinates>134.286053,47.567277,0</coordinates></Point></Placemark>
<Placemark><name>M3D-027</name><description>臂=D_control_base 教师类=灌溉耕地</description><Style><IconStyle><color>ff00ff00</color></IconStyle></Style><Point><coordinates>130.358169,42.807733,0</coordinates></Point></Placemark>
<Placemark><name>M3D-028</name><description>臂=D_control_base 教师类=灌溉耕地</description><Style><IconStyle><color>ff00ff00</color></IconStyle></Style><Point><coordinates>134.313541,48.233737,0</coordinates></Point></Placemark>
<Placemark><name>M3D-029</name><description>臂=D_control_base 教师类=灌溉耕地</description><Style><IconStyle><color>ff00ff00</color></IconStyle></Style><Point><coordinates>132.171868,46.655307,0</coordinates></Point></Placemark>
<Placemark><name>M3D-030</name><description>臂=D_control_base 教师类=落叶阔叶林</description><Style><IconStyle><color>ff00ff00</color></IconStyle></Style><Point><coordinates>130.711746,48.348002,0</coordinates></Point></Placemark>
<Placemark><name>M3D-031</name><description>臂=D_control_base 教师类=落叶阔叶林</description><Style><IconStyle><color>ff00ff00</color></IconStyle></Style><Point><coordinates>130.262229,44.365411,0</coordinates></Point></Placemark>
<Placemark><name>M3D-032</name><description>臂=D_control_base 教师类=落叶阔叶林</description><Style><IconStyle><color>ff00ff00</color></IconStyle></Style><Point><coordinates>132.327096,45.484622,0</coordinates></Point></Placemark>
<Placemark><name>M3D-033</name><description>臂=D_control_base 教师类=落叶阔叶林</description><Style><IconStyle><color>ff00ff00</color></IconStyle></Style><Point><coordinates>131.040529,43.681165,0</coordinates></Point></Placemark>
<Placemark><name>M3D-034</name><description>臂=D_control_base 教师类=落叶阔叶林</description><Style><IconStyle><color>ff00ff00</color></IconStyle></Style><Point><coordinates>130.071427,44.414998,0</coordinates></Point></Placemark>
<Placemark><name>M3D-035</name><description>臂=D_control_base 教师类=落叶阔叶林</description><Style><IconStyle><color>ff00ff00</color></IconStyle></Style><Point><coordinates>130.377842,45.115145,0</coordinates></Point></Placemark>
<Placemark><name>M3D-036</name><description>臂=D_control_base 教师类=落叶阔叶林</description><Style><IconStyle><color>ff00ff00</color></IconStyle></Style><Point><coordinates>130.542234,48.540960,0</coordinates></Point></Placemark>
<Placemark><name>M3D-037</name><description>臂=D_control_base 教师类=落叶阔叶林</description><Style><IconStyle><color>ff00ff00</color></IconStyle></Style><Point><coordinates>130.055257,47.788801,0</coordinates></Point></Placemark>
<Placemark><name>M3D-038</name><description>臂=D_control_base 教师类=落叶阔叶林</description><Style><IconStyle><color>ff00ff00</color></IconStyle></Style><Point><coordinates>130.161169,48.713437,0</coordinates></Point></Placemark>
<Placemark><name>M3D-039</name><description>臂=D_control_base 教师类=落叶阔叶林</description><Style><IconStyle><color>ff00ff00</color></IconStyle></Style><Point><coordinates>132.854497,47.908457,0</coordinates></Point></Placemark>
<Placemark><name>M3D-040</name><description>臂=D_control_base 教师类=落叶阔叶林</description><Style><IconStyle><color>ff00ff00</color></IconStyle></Style><Point><coordinates>132.890879,47.914386,0</coordinates></Point></Placemark>
<Placemark><name>M3D-041</name><description>臂=D_control_base 教师类=落叶阔叶林</description><Style><IconStyle><color>ff00ff00</color></IconStyle></Style><Point><coordinates>130.866166,44.945364,0</coordinates></Point></Placemark>
<Placemark><name>M3D-042</name><description>臂=D_control_base 教师类=落叶阔叶林</description><Style><IconStyle><color>ff00ff00</color></IconStyle></Style><Point><coordinates>131.002261,45.991811,0</coordinates></Point></Placemark>
<Placemark><name>M3D-043</name><description>臂=D_control_base 教师类=落叶阔叶林</description><Style><IconStyle><color>ff00ff00</color></IconStyle></Style><Point><coordinates>132.792514,46.127906,0</coordinates></Point></Placemark>
<Placemark><name>M3D-044</name><description>臂=D_control_base 教师类=落叶阔叶林</description><Style><IconStyle><color>ff00ff00</color></IconStyle></Style><Point><coordinates>132.942892,47.873422,0</coordinates></Point></Placemark>
<Placemark><name>M3D-045</name><description>臂=D_control_base 教师类=常绿针叶林</description><Style><IconStyle><color>ff00ff00</color></IconStyle></Style><Point><coordinates>130.794211,43.266412,0</coordinates></Point></Placemark>
<Placemark><name>M3D-046</name><description>臂=D_control_base 教师类=常绿针叶林</description><Style><IconStyle><color>ff00ff00</color></IconStyle></Style><Point><coordinates>130.898236,43.684399,0</coordinates></Point></Placemark>
<Placemark><name>M3D-047</name><description>臂=D_control_base 教师类=常绿针叶林</description><Style><IconStyle><color>ff00ff00</color></IconStyle></Style><Point><coordinates>131.164497,45.428028,0</coordinates></Point></Placemark>
<Placemark><name>M3D-048</name><description>臂=D_control_base 教师类=常绿针叶林</description><Style><IconStyle><color>ff00ff00</color></IconStyle></Style><Point><coordinates>130.983396,44.636253,0</coordinates></Point></Placemark>
<Placemark><name>M3D-049</name><description>臂=D_control_base 教师类=常绿针叶林</description><Style><IconStyle><color>ff00ff00</color></IconStyle></Style><Point><coordinates>130.844876,46.150813,0</coordinates></Point></Placemark>
<Placemark><name>M3D-050</name><description>臂=D_control_base 教师类=常绿针叶林</description><Style><IconStyle><color>ff00ff00</color></IconStyle></Style><Point><coordinates>130.996871,45.689977,0</coordinates></Point></Placemark>
<Placemark><name>M3D-051</name><description>臂=D_control_base 教师类=常绿针叶林</description><Style><IconStyle><color>ff00ff00</color></IconStyle></Style><Point><coordinates>131.227020,45.698062,0</coordinates></Point></Placemark>
<Placemark><name>M3D-052</name><description>臂=D_control_base 教师类=常绿针叶林</description><Style><IconStyle><color>ff00ff00</color></IconStyle></Style><Point><coordinates>131.020587,45.412937,0</coordinates></Point></Placemark>
<Placemark><name>M3D-053</name><description>臂=D_control_base 教师类=常绿针叶林</description><Style><IconStyle><color>ff00ff00</color></IconStyle></Style><Point><coordinates>131.642311,45.618292,0</coordinates></Point></Placemark>
<Placemark><name>M3D-054</name><description>臂=D_control_base 教师类=常绿针叶林</description><Style><IconStyle><color>ff00ff00</color></IconStyle></Style><Point><coordinates>130.822508,47.917889,0</coordinates></Point></Placemark>
<Placemark><name>M3D-055</name><description>臂=D_control_base 教师类=常绿针叶林</description><Style><IconStyle><color>ff00ff00</color></IconStyle></Style><Point><coordinates>131.024090,43.445626,0</coordinates></Point></Placemark>
<Placemark><name>M3D-056</name><description>臂=D_control_base 教师类=常绿针叶林</description><Style><IconStyle><color>ff00ff00</color></IconStyle></Style><Point><coordinates>131.031367,45.288969,0</coordinates></Point></Placemark>
<Placemark><name>M3D-057</name><description>臂=D_control_base 教师类=常绿针叶林</description><Style><IconStyle><color>ff00ff00</color></IconStyle></Style><Point><coordinates>131.903182,45.381136,0</coordinates></Point></Placemark>
<Placemark><name>M3D-058</name><description>臂=D_control_base 教师类=常绿针叶林</description><Style><IconStyle><color>ff00ff00</color></IconStyle></Style><Point><coordinates>130.660542,46.590359,0</coordinates></Point></Placemark>
<Placemark><name>M3D-059</name><description>臂=D_control_base 教师类=常绿针叶林</description><Style><IconStyle><color>ff00ff00</color></IconStyle></Style><Point><coordinates>130.693420,46.692228,0</coordinates></Point></Placemark>
<Placemark><name>M3D-060</name><description>臂=D_control_base 教师类=落叶针叶林</description><Style><IconStyle><color>ff00ff00</color></IconStyle></Style><Point><coordinates>131.111406,46.435669,0</coordinates></Point></Placemark>
<Placemark><name>M3D-061</name><description>臂=D_control_base 教师类=落叶针叶林</description><Style><IconStyle><color>ff00ff00</color></IconStyle></Style><Point><coordinates>130.462733,48.363633,0</coordinates></Point></Placemark>
<Placemark><name>M3D-062</name><description>臂=D_control_base 教师类=落叶针叶林</description><Style><IconStyle><color>ff00ff00</color></IconStyle></Style><Point><coordinates>130.632784,43.156998,0</coordinates></Point></Placemark>
<Placemark><name>M3D-063</name><description>臂=D_control_base 教师类=落叶针叶林</description><Style><IconStyle><color>ff00ff00</color></IconStyle></Style><Point><coordinates>130.391047,43.301447,0</coordinates></Point></Placemark>
<Placemark><name>M3D-064</name><description>臂=D_control_base 教师类=落叶针叶林</description><Style><IconStyle><color>ff00ff00</color></IconStyle></Style><Point><coordinates>130.737887,46.684682,0</coordinates></Point></Placemark>
<Placemark><name>M3D-065</name><description>臂=D_control_base 教师类=落叶针叶林</description><Style><IconStyle><color>ff00ff00</color></IconStyle></Style><Point><coordinates>130.379998,48.097642,0</coordinates></Point></Placemark>
<Placemark><name>M3D-066</name><description>臂=D_control_base 教师类=落叶针叶林</description><Style><IconStyle><color>ff00ff00</color></IconStyle></Style><Point><coordinates>130.402097,48.073387,0</coordinates></Point></Placemark>
<Placemark><name>M3D-067</name><description>臂=D_control_base 教师类=落叶针叶林</description><Style><IconStyle><color>ff00ff00</color></IconStyle></Style><Point><coordinates>132.520055,46.075624,0</coordinates></Point></Placemark>
<Placemark><name>M3D-068</name><description>臂=D_control_base 教师类=落叶针叶林</description><Style><IconStyle><color>ff00ff00</color></IconStyle></Style><Point><coordinates>131.210311,46.378266,0</coordinates></Point></Placemark>
<Placemark><name>M3D-069</name><description>臂=D_control_base 教师类=落叶针叶林</description><Style><IconStyle><color>ff00ff00</color></IconStyle></Style><Point><coordinates>130.156048,45.532862,0</coordinates></Point></Placemark>
<Placemark><name>M3D-070</name><description>臂=D_control_base 教师类=落叶针叶林</description><Style><IconStyle><color>ff00ff00</color></IconStyle></Style><Point><coordinates>130.375686,44.285371,0</coordinates></Point></Placemark>
<Placemark><name>M3D-071</name><description>臂=D_control_base 教师类=落叶针叶林</description><Style><IconStyle><color>ff00ff00</color></IconStyle></Style><Point><coordinates>131.431566,45.148024,0</coordinates></Point></Placemark>
<Placemark><name>M3D-072</name><description>臂=D_control_base 教师类=落叶针叶林</description><Style><IconStyle><color>ff00ff00</color></IconStyle></Style><Point><coordinates>131.219204,45.680006,0</coordinates></Point></Placemark>
<Placemark><name>M3D-073</name><description>臂=D_control_base 教师类=落叶针叶林</description><Style><IconStyle><color>ff00ff00</color></IconStyle></Style><Point><coordinates>130.924916,44.686379,0</coordinates></Point></Placemark>
<Placemark><name>M3D-074</name><description>臂=D_control_base 教师类=落叶针叶林</description><Style><IconStyle><color>ff00ff00</color></IconStyle></Style><Point><coordinates>130.974503,45.682162,0</coordinates></Point></Placemark>
<Placemark><name>M3D-075</name><description>臂=D_control_base 教师类=草地</description><Style><IconStyle><color>ff00ff00</color></IconStyle></Style><Point><coordinates>130.131255,47.393991,0</coordinates></Point></Placemark>
<Placemark><name>M3D-076</name><description>臂=D_control_base 教师类=木本沼泽</description><Style><IconStyle><color>ff00ff00</color></IconStyle></Style><Point><coordinates>131.733400,47.682890,0</coordinates></Point></Placemark>
<Placemark><name>M3D-077</name><description>臂=D_control_base 教师类=木本沼泽</description><Style><IconStyle><color>ff00ff00</color></IconStyle></Style><Point><coordinates>132.803024,47.802815,0</coordinates></Point></Placemark>
<Placemark><name>M3D-078</name><description>臂=D_control_base 教师类=木本沼泽</description><Style><IconStyle><color>ff00ff00</color></IconStyle></Style><Point><coordinates>133.542787,45.891829,0</coordinates></Point></Placemark>
<Placemark><name>M3D-079</name><description>臂=D_control_base 教师类=木本沼泽</description><Style><IconStyle><color>ff00ff00</color></IconStyle></Style><Point><coordinates>133.495625,45.881857,0</coordinates></Point></Placemark>
<Placemark><name>M3D-080</name><description>臂=D_control_base 教师类=木本沼泽</description><Style><IconStyle><color>ff00ff00</color></IconStyle></Style><Point><coordinates>133.517454,45.888595,0</coordinates></Point></Placemark>
<Placemark><name>M3D-081</name><description>臂=D_control_base 教师类=木本沼泽</description><Style><IconStyle><color>ff00ff00</color></IconStyle></Style><Point><coordinates>133.507483,45.884013,0</coordinates></Point></Placemark>
<Placemark><name>M3D-082</name><description>臂=D_control_base 教师类=木本沼泽</description><Style><IconStyle><color>ff00ff00</color></IconStyle></Style><Point><coordinates>133.181664,46.850151,0</coordinates></Point></Placemark>
<Placemark><name>M3D-083</name><description>臂=D_control_base 教师类=木本沼泽</description><Style><IconStyle><color>ff00ff00</color></IconStyle></Style><Point><coordinates>130.481867,48.835518,0</coordinates></Point></Placemark>
<Placemark><name>M3D-084</name><description>臂=D_control_base 教师类=木本沼泽</description><Style><IconStyle><color>ff00ff00</color></IconStyle></Style><Point><coordinates>132.436511,45.845206,0</coordinates></Point></Placemark>
<Placemark><name>M3D-085</name><description>臂=D_control_base 教师类=木本沼泽</description><Style><IconStyle><color>ff00ff00</color></IconStyle></Style><Point><coordinates>134.635048,47.612013,0</coordinates></Point></Placemark>
<Placemark><name>M3D-086</name><description>臂=D_control_base 教师类=木本沼泽</description><Style><IconStyle><color>ff00ff00</color></IconStyle></Style><Point><coordinates>133.498050,45.879162,0</coordinates></Point></Placemark>
<Placemark><name>M3D-087</name><description>臂=D_control_base 教师类=木本沼泽</description><Style><IconStyle><color>ff00ff00</color></IconStyle></Style><Point><coordinates>133.687775,45.995854,0</coordinates></Point></Placemark>
<Placemark><name>M3D-088</name><description>臂=D_control_base 教师类=木本沼泽</description><Style><IconStyle><color>ff00ff00</color></IconStyle></Style><Point><coordinates>133.664329,45.960011,0</coordinates></Point></Placemark>
<Placemark><name>M3D-089</name><description>臂=D_control_base 教师类=木本沼泽</description><Style><IconStyle><color>ff00ff00</color></IconStyle></Style><Point><coordinates>133.688314,46.010676,0</coordinates></Point></Placemark>
<Placemark><name>M3D-090</name><description>臂=D_control_base 教师类=木本沼泽</description><Style><IconStyle><color>ff00ff00</color></IconStyle></Style><Point><coordinates>133.173579,46.849612,0</coordinates></Point></Placemark>
<Placemark><name>M3D-091</name><description>臂=D_control_base 教师类=草本沼泽</description><Style><IconStyle><color>ff00ff00</color></IconStyle></Style><Point><coordinates>132.320629,47.633572,0</coordinates></Point></Placemark>
<Placemark><name>M3D-092</name><description>臂=D_control_base 教师类=草本沼泽</description><Style><IconStyle><color>ff00ff00</color></IconStyle></Style><Point><coordinates>133.165494,46.847456,0</coordinates></Point></Placemark>
<Placemark><name>M3D-093</name><description>臂=D_control_base 教师类=草本沼泽</description><Style><IconStyle><color>ff00ff00</color></IconStyle></Style><Point><coordinates>134.653913,48.390582,0</coordinates></Point></Placemark>
<Placemark><name>M3D-094</name><description>臂=D_control_base 教师类=草本沼泽</description><Style><IconStyle><color>ff00ff00</color></IconStyle></Style><Point><coordinates>134.616184,48.301649,0</coordinates></Point></Placemark>
<Placemark><name>M3D-095</name><description>臂=D_control_base 教师类=草本沼泽</description><Style><IconStyle><color>ff00ff00</color></IconStyle></Style><Point><coordinates>132.948551,46.766608,0</coordinates></Point></Placemark>
<Placemark><name>M3D-096</name><description>臂=D_control_base 教师类=草本沼泽</description><Style><IconStyle><color>ff00ff00</color></IconStyle></Style><Point><coordinates>133.487810,45.872156,0</coordinates></Point></Placemark>
<Placemark><name>M3D-097</name><description>臂=D_control_base 教师类=草本沼泽</description><Style><IconStyle><color>ff00ff00</color></IconStyle></Style><Point><coordinates>134.646636,48.376299,0</coordinates></Point></Placemark>
<Placemark><name>M3D-098</name><description>臂=D_control_base 教师类=草本沼泽</description><Style><IconStyle><color>ff00ff00</color></IconStyle></Style><Point><coordinates>131.978371,45.576790,0</coordinates></Point></Placemark>
<Placemark><name>M3D-099</name><description>臂=D_control_base 教师类=草本沼泽</description><Style><IconStyle><color>ff00ff00</color></IconStyle></Style><Point><coordinates>132.799251,46.769034,0</coordinates></Point></Placemark>
<Placemark><name>M3D-100</name><description>臂=D_control_base 教师类=草本沼泽</description><Style><IconStyle><color>ff00ff00</color></IconStyle></Style><Point><coordinates>134.533718,48.366328,0</coordinates></Point></Placemark>
<Placemark><name>M3D-101</name><description>臂=D_control_base 教师类=草本沼泽</description><Style><IconStyle><color>ff00ff00</color></IconStyle></Style><Point><coordinates>132.800868,46.771998,0</coordinates></Point></Placemark>
<Placemark><name>M3D-102</name><description>臂=D_control_base 教师类=草本沼泽</description><Style><IconStyle><color>ff00ff00</color></IconStyle></Style><Point><coordinates>134.679245,47.644352,0</coordinates></Point></Placemark>
<Placemark><name>M3D-103</name><description>臂=D_control_base 教师类=草本沼泽</description><Style><IconStyle><color>ff00ff00</color></IconStyle></Style><Point><coordinates>130.910633,47.197799,0</coordinates></Point></Placemark>
<Placemark><name>M3D-104</name><description>臂=D_control_base 教师类=草本沼泽</description><Style><IconStyle><color>ff00ff00</color></IconStyle></Style><Point><coordinates>131.577902,45.200306,0</coordinates></Point></Placemark>
<Placemark><name>M3D-105</name><description>臂=D_control_base 教师类=草本沼泽</description><Style><IconStyle><color>ff00ff00</color></IconStyle></Style><Point><coordinates>131.284422,47.183786,0</coordinates></Point></Placemark>
<Placemark><name>M3D-106</name><description>臂=D_control_base 教师类=湖河滩地</description><Style><IconStyle><color>ff00ff00</color></IconStyle></Style><Point><coordinates>131.260167,47.206154,0</coordinates></Point></Placemark>
<Placemark><name>M3D-107</name><description>臂=D_control_base 教师类=湖河滩地</description><Style><IconStyle><color>ff00ff00</color></IconStyle></Style><Point><coordinates>130.474860,48.870013,0</coordinates></Point></Placemark>
<Placemark><name>M3D-108</name><description>臂=D_control_base 教师类=湖河滩地</description><Style><IconStyle><color>ff00ff00</color></IconStyle></Style><Point><coordinates>134.413254,48.377916,0</coordinates></Point></Placemark>
<Placemark><name>M3D-109</name><description>臂=D_control_base 教师类=湖河滩地</description><Style><IconStyle><color>ff00ff00</color></IconStyle></Style><Point><coordinates>131.522925,47.243614,0</coordinates></Point></Placemark>
<Placemark><name>M3D-110</name><description>臂=D_control_base 教师类=湖河滩地</description><Style><IconStyle><color>ff00ff00</color></IconStyle></Style><Point><coordinates>131.699444,47.703371,0</coordinates></Point></Placemark>
<Placemark><name>M3D-111</name><description>臂=D_control_base 教师类=湖河滩地</description><Style><IconStyle><color>ff00ff00</color></IconStyle></Style><Point><coordinates>131.245345,47.188906,0</coordinates></Point></Placemark>
<Placemark><name>M3D-112</name><description>臂=D_control_base 教师类=湖河滩地</description><Style><IconStyle><color>ff00ff00</color></IconStyle></Style><Point><coordinates>131.236721,47.203459,0</coordinates></Point></Placemark>
<Placemark><name>M3D-113</name><description>臂=D_control_base 教师类=不透水面</description><Style><IconStyle><color>ff00ff00</color></IconStyle></Style><Point><coordinates>134.407864,48.349889,0</coordinates></Point></Placemark>
<Placemark><name>M3D-114</name><description>臂=D_control_base 教师类=不透水面</description><Style><IconStyle><color>ff00ff00</color></IconStyle></Style><Point><coordinates>130.884492,47.902258,0</coordinates></Point></Placemark>
<Placemark><name>M3D-115</name><description>臂=D_control_base 教师类=不透水面</description><Style><IconStyle><color>ff00ff00</color></IconStyle></Style><Point><coordinates>131.396801,46.782778,0</coordinates></Point></Placemark>
<Placemark><name>M3D-116</name><description>臂=D_control_base 教师类=不透水面</description><Style><IconStyle><color>ff00ff00</color></IconStyle></Style><Point><coordinates>130.973425,45.301905,0</coordinates></Point></Placemark>
<Placemark><name>M3D-117</name><description>臂=D_control_base 教师类=不透水面</description><Style><IconStyle><color>ff00ff00</color></IconStyle></Style><Point><coordinates>132.013405,46.459654,0</coordinates></Point></Placemark>
<Placemark><name>M3D-118</name><description>臂=D_control_base 教师类=不透水面</description><Style><IconStyle><color>ff00ff00</color></IconStyle></Style><Point><coordinates>131.076372,45.778371,0</coordinates></Point></Placemark>
<Placemark><name>M3D-119</name><description>臂=D_control_base 教师类=不透水面</description><Style><IconStyle><color>ff00ff00</color></IconStyle></Style><Point><coordinates>131.983760,45.585952,0</coordinates></Point></Placemark>
<Placemark><name>M3D-120</name><description>臂=D_control_base 教师类=不透水面</description><Style><IconStyle><color>ff00ff00</color></IconStyle></Style><Point><coordinates>132.031461,46.474745,0</coordinates></Point></Placemark>
<Placemark><name>M3D-121</name><description>臂=D_control_base 教师类=不透水面</description><Style><IconStyle><color>ff00ff00</color></IconStyle></Style><Point><coordinates>131.149675,45.404043,0</coordinates></Point></Placemark>
<Placemark><name>M3D-122</name><description>臂=D_control_base 教师类=不透水面</description><Style><IconStyle><color>ff00ff00</color></IconStyle></Style><Point><coordinates>132.477205,46.431087,0</coordinates></Point></Placemark>
<Placemark><name>M3D-123</name><description>臂=D_control_base 教师类=不透水面</description><Style><IconStyle><color>ff00ff00</color></IconStyle></Style><Point><coordinates>131.283883,45.303791,0</coordinates></Point></Placemark>
<Placemark><name>M3D-124</name><description>臂=D_control_base 教师类=不透水面</description><Style><IconStyle><color>ff00ff00</color></IconStyle></Style><Point><coordinates>132.491758,46.070234,0</coordinates></Point></Placemark>
<Placemark><name>M3D-125</name><description>臂=D_control_base 教师类=不透水面</description><Style><IconStyle><color>ff00ff00</color></IconStyle></Style><Point><coordinates>130.871017,45.204078,0</coordinates></Point></Placemark>
<Placemark><name>M3D-126</name><description>臂=D_control_base 教师类=不透水面</description><Style><IconStyle><color>ff00ff00</color></IconStyle></Style><Point><coordinates>130.039626,45.969174,0</coordinates></Point></Placemark>
<Placemark><name>M3D-127</name><description>臂=D_control_base 教师类=不透水面</description><Style><IconStyle><color>ff00ff00</color></IconStyle></Style><Point><coordinates>130.496689,48.852496,0</coordinates></Point></Placemark>
<Placemark><name>M3D-128</name><description>臂=D_control_base 教师类=水体</description><Style><IconStyle><color>ff00ff00</color></IconStyle></Style><Point><coordinates>134.019522,48.296259,0</coordinates></Point></Placemark>
<Placemark><name>M3D-129</name><description>臂=D_control_base 教师类=水体</description><Style><IconStyle><color>ff00ff00</color></IconStyle></Style><Point><coordinates>134.522130,48.346924,0</coordinates></Point></Placemark>
<Placemark><name>M3D-130</name><description>臂=D_control_base 教师类=水体</description><Style><IconStyle><color>ff00ff00</color></IconStyle></Style><Point><coordinates>132.450525,45.823377,0</coordinates></Point></Placemark>
<Placemark><name>M3D-131</name><description>臂=D_control_base 教师类=水体</description><Style><IconStyle><color>ff00ff00</color></IconStyle></Style><Point><coordinates>131.255047,47.183247,0</coordinates></Point></Placemark>
<Placemark><name>M3D-132</name><description>臂=D_control_base 教师类=水体</description><Style><IconStyle><color>ff00ff00</color></IconStyle></Style><Point><coordinates>134.639091,48.405944,0</coordinates></Point></Placemark>
<Placemark><name>M3D-133</name><description>臂=D_control_base 教师类=水体</description><Style><IconStyle><color>ff00ff00</color></IconStyle></Style><Point><coordinates>130.598289,48.758443,0</coordinates></Point></Placemark>
<Placemark><name>M3D-134</name><description>臂=D_control_base 教师类=水体</description><Style><IconStyle><color>ff00ff00</color></IconStyle></Style><Point><coordinates>134.570639,48.129173,0</coordinates></Point></Placemark>
<Placemark><name>M3D-135</name><description>臂=D_control_base 教师类=水体</description><Style><IconStyle><color>ff00ff00</color></IconStyle></Style><Point><coordinates>132.336259,45.205965,0</coordinates></Point></Placemark>
<Placemark><name>M3D-136</name><description>臂=D_control_base 教师类=水体</description><Style><IconStyle><color>ff00ff00</color></IconStyle></Style><Point><coordinates>131.279571,47.200225,0</coordinates></Point></Placemark>
<Placemark><name>M3D-137</name><description>臂=D_control_base 教师类=水体</description><Style><IconStyle><color>ff00ff00</color></IconStyle></Style><Point><coordinates>130.829785,48.305422,0</coordinates></Point></Placemark>
<Placemark><name>M3D-138</name><description>臂=D_control_base 教师类=水体</description><Style><IconStyle><color>ff00ff00</color></IconStyle></Style><Point><coordinates>133.098929,46.224654,0</coordinates></Point></Placemark>
<Placemark><name>M3D-139</name><description>臂=D_control_base 教师类=水体</description><Style><IconStyle><color>ff00ff00</color></IconStyle></Style><Point><coordinates>132.278048,47.430912,0</coordinates></Point></Placemark>
<Placemark><name>M3D-140</name><description>臂=D_control_base 教师类=水体</description><Style><IconStyle><color>ff00ff00</color></IconStyle></Style><Point><coordinates>134.529945,48.346655,0</coordinates></Point></Placemark>
<Placemark><name>M3D-141</name><description>臂=D_control_base 教师类=水体</description><Style><IconStyle><color>ff00ff00</color></IconStyle></Style><Point><coordinates>132.174832,46.649108,0</coordinates></Point></Placemark>
<Placemark><name>M3D-142</name><description>臂=D_control_base 教师类=水体</description><Style><IconStyle><color>ff00ff00</color></IconStyle></Style><Point><coordinates>132.023376,47.323923,0</coordinates></Point></Placemark>
</Document></kml>